156P/Russell-LINEAR,e,21.0203,38.5301,357.8464,3.581730,0.1454001,0.56375180,142.2150,12/22.0/2016,2000,g 15.5,2.0
# From MPC 95214
157P/Tritton,e,7.2838,299.9869,148.9104,3.409944,0.1565248,0.60173617,30.4632,12/22.0/2016,2000,g 10.0,4.0
# From MPC 10028
158P/Kowal-LINEAR,e,7.8978,137.2624,242.9973,4.748709,0.0952447,0.02852767,138.2896,12/22.0/2016,2000,g  9.0,4.0
# From MPC 75721
159P/LONEOS,e,23.4603,55.0306,4.8258,5.862044,0.0694433,0.38173063,324.0863,12/22.0/2016,2000,g 10.0,4.0
# From MPC102101
160P/LINEAR,e,15.8917,334.3515,12.2307,3.756016,0.1353982,0.53175848,214.7331,12/22.0/2016,2000,g 15.5,2.0
# From MPC 75721
161P/Hartley-IRAS,e,95.5816,1.2348,46.9429,7.722017,0.0459312,0.83531462,193.2764,12/22.0/2016,2000,g  8.5,6.0
# From MPC 92985
162P/Siding Spring,e,27.8233,31.1332,356.6412,3.061766,0.1839696,0.59477238,97.3065,12/22.0/2016,2000,g 12.0,4.0
# From MPC102101
163P/NEAT,e,12.7123,102.1098,349.7921,3.767759,0.1347657,0.45222383,231.1263,12/22.0/2016,2000,g 14.5,4.0
# From MPC 94676
164P/Christensen,e,16.2548,88.3128,325.9635,3.659714,0.1407775,0.53966536,286.0258,12/22.0/2016,2000,g 11.0,4.0
# From MPC 75721
165P/LINEAR,e,15.9043,0.5154,126.4301,17.90934,0.0130042,0.61743934,78.4829,12/22.0/2016,2000,g 11.5,2.0
# From MPC 75722
166P/NEAT,e,15.3595,64.5054,322.0351,13.88955,0.0190402,0.37951277,101.7504,12/22.0/2016,2000,g  5.5,4.0
# From MPC 75722
167P/CINEOS,e,19.1058,295.8044,343.4736,16.14618,0.0151915,0.27204764,87.1848,12/22.0/2016,2000,g  9.5,2.0
# From MPC102101
168P/Hergenrother,e,21.9633,356.3509,13.7463,3.602283,0.1441575,0.61604168,221.7394,12/22.0/2016,2000,g 15.5,4.0
# From MPC 94676
169P/NEAT,e,11.2985,176.1199,218.0141,2.603533,0.2346170,0.76759861,244.1581,12/22.0/2016,2000,g 16.0,2.0
# From MPC 89012
170P/Christensen,e,10.1273,142.9206,225.8437,4.197794,0.1145968,0.30379478,94.6925,12/22.0/2016,2000,g 12.0,4.0
# From MPC102102
171P/Spahr,e,21.9392,101.7117,347.1999,3.556671,0.1469395,0.50213121,249.3961,12/22.0/2016,2000,g 13.5,4.0
# From MPC 93588
172P/Yeung,e,11.2370,30.8892,209.1160,4.210394,0.1140828,0.20745005,350.7545,12/22.0/2016,2000,g 13.0,4.0
# From MPC 75722
173P/Mueller,e,16.4995,100.4525,29.6301,5.691754,0.0725830,0.26160250,227.7230,12/22.0/2016,2000,g  7.5,4.0
# From MPC 92985
174P/Echeclus,e,4.3447,173.3355,162.8374,10.68055,0.0282367,0.45548103,17.2396,12/22.0/2016,2000,g  9.4,2.0
# From MPC102102
175P/Hergenrother,e,6.0766,123.5693,56.0913,3.429596,0.1551814,0.43256930,202.9139,12/22.0/2016,2000,g 14.0,4.0
# From MPC 88331
176P/LINEAR,e,0.2346,345.9826,35.3594,3.195985,0.1725031,0.19280278,346.1652,12/22.0/2016,2000,g 15.1,2.0
# From MPC 75723
177P/Barnard,e,31.2078,272.1292,60.5300,24.38260,0.0081862,0.95416681,30.8976,12/22.0/2016,2000,g 15.0,4.0
# From MPC 87068
178P/Hug-Bell,e,10.9767,103.3323,296.7100,3.657333,0.1409150,0.47613496,175.7906,12/22.0/2016,2000,g 13.5,4.0
# From MPC 75723
179P/Jedicke,e,19.8758,115.5393,296.3142,5.946268,0.0679732,0.30511910,225.2179,12/22.0/2016,2000,g  2.5,8.0
# From MPC 10028
180P/NEAT,e,16.8721,84.5687,94.8544,3.857328,0.1300991,0.35463971,48.8418,12/22.0/2016,2000,g 11.0,4.0
# From MPC 89012
181P/Shoemaker-Levy,e,17.4589,35.4874,336.2888,3.863712,0.1297768,0.70336102,120.5436,12/22.0/2016,2000,g 11.5,4.0
# From MPC 88331
182P/LONEOS,e,16.2402,72.7941,53.8764,2.961872,0.1933547,0.65957605,338.6061,12/22.0/2016,2000,g 18.0,4.0
# From NK 2735
183P/Korlevic-Juric,e,18.7541,5.8432,161.1723,4.486254,0.1037238,0.13676240,326.4224,12/22.0/2016,2000,g 12.5,2.0
# From MPC 86232
184P/Lovas,e,4.6113,173.6257,186.7855,3.763487,0.1349953,0.55992694,171.0312,12/22.0/2016,2000,g 13.5,4.0
# From MPC 94676
185P/Petriew,e,13.9943,214.0995,181.9172,3.101079,0.1804823,0.69879378,287.4975,12/22.0/2016,2000,g 15.0,4.0
# From MPC 10028
186P/Garradd,e,28.4752,327.3083,284.3993,4.991391,0.0883836,0.12124468,282.9649,12/22.0/2016,2000,g  7.5,4.0
# From MPC 75724
187P/LINEAR,e,13.5827,110.6257,134.0535,4.596842,0.1000034,0.15765998,306.9430,12/22.0/2016,2000,g  9.0,4.0
# From MPC 10028
188P/LINEAR-Mueller,e,10.5114,358.9813,26.7741,4.383991,0.1073741,0.41488696,353.8744,12/22.0/2016,2000,g 11.5,4.0
# From NK 2724
189P/NEAT,e,20.0652,281.7701,16.1913,2.947150,0.1948053,0.58830770,315.7954,12/22.0/2016,2000,g 19.0,4.0
# From MPC 75724
190P/Mueller,e,2.1727,335.5503,50.4162,4.241394,0.1128343,0.52063269,29.1294,12/22.0/2016,2000,g 13.0,4.0
# From MPC 92277
191P/McNaught,e,8.6041,104.0917,278.2655,3.568540,0.1462070,0.41812758,139.9522,12/22.0/2016,2000,g 13.0,4.0
# From MPC 75724
192P/Shoemaker-Levy,e,24.5160,51.6658,312.9372,6.476768,0.0597952,0.77160595,197.5000,12/22.0/2016,2000,g 15.0,4.0
# From MPC 91618
193P/LINEAR-NEAT,e,10.6870,335.1936,8.4082,3.574491,0.1458421,0.39384799,110.6389,12/22.0/2016,2000,g 14.0,4.0
# From MPC 98566
194P/LINEAR,e,11.1364,351.9884,130.6677,3.999006,0.1232469,0.57565702,36.3099,12/22.0/2016,2000,g 16.0,4.0
# From MPC 75724
195P/Hill,e,36.3488,243.1161,249.7224,6.483686,0.0596996,0.31543276,172.5878,12/22.0/2016,2000,g  8.5,4.0
# From MPC 92985
196P/Tichy,e,19.3810,24.2384,12.1242,3.778411,0.1341962,0.43415620,74.6048,12/22.0/2016,2000,g 13.5,4.0
# From MPC 94676
197P/LINEAR,e,25.5554,66.3944,188.6930,2.864977,0.2032462,0.63001392,278.1153,12/22.0/2016,2000,g 16.5,2.0
# From MPC 65937
198P/ODAS,e,1.3394,358.3337,69.3151,3.600009,0.1442942,0.44316562,255.8153,12/22.0/2016,2000,g 12.5,4.0
# From MPC 75725
199P/Shoemaker,e,24.9102,92.3702,191.4259,5.910331,0.0685940,0.50428277,193.8717,12/22.0/2016,2000,g 10.0,4.0
# From MPC 75725
200P/Larsen,e,12.1064,234.8032,133.9310,4.931255,0.0900052,0.33092666,274.6172,12/22.0/2016,2000,g  9.0,4.0
# From MPC 93588
201P/LONEOS,e,7.0512,35.1773,24.9113,3.453400,0.1535797,0.61454669,108.5559,12/22.0/2016,2000,g 14.0,4.0
# From MPC 75725
202P/Scotti,e,2.1883,194.5234,255.7686,3.770500,0.1346188,0.33207107,26.1026,12/22.0/2016,2000,g 13.5,4.0
# From MPC 75725
203P/Korlevic,e,2.9752,290.3898,155.1002,4.663378,0.0978708,0.31499440,245.4991,12/22.0/2016,2000,g 14.5,2.0
# From MPC 98566
204P/LINEAR-NEAT,e,6.5876,109.0084,355.0814,3.656754,0.1409485,0.47276780,53.0517,12/22.0/2016,2000,g 14.0,4.0
# From MPC 98566
205P/Giacobini,e,15.2852,179.6174,154.2015,3.546325,0.1475830,0.56675952,86.7964,12/22.0/2016,2000,g 13.0,4.0
# From MPC 75725
206P/Barnard-Boattini,e,33.5133,203.7218,181.8525,3.239009,0.1690775,0.64856282,142.8996,12/22.0/2016,2000,g 19.0,4.0
# From MPC 75725
207P/NEAT,e,10.1615,200.5444,271.2779,3.876961,0.1291121,0.75823892,22.4283,12/22.0/2016,2000,g 16.0,4.0
# From MPC101100
208P/McMillan,e,4.4082,36.4142,310.5006,4.052988,0.1207928,0.37217050,20.9273,12/22.0/2016,2000,g 12.5,4.0
# From MPC 90771
209P/LINEAR,e,21.2503,62.7784,152.4493,2.963016,0.1932427,0.67320200,185.5683,12/22.0/2016,2000,g 17.0,2.0
# From MPC 89013
210P/Christensen,e,10.2374,93.8292,345.8248,3.170383,0.1745969,0.83216741,149.8022,12/22.0/2016,2000,g 13.5,4.0
# From MPC 96868
211P/Hill,e,18.8800,117.2235,4.4242,3.559939,0.1467372,0.33998082,48.3887,12/22.0/2016,2000,g 12.5,4.0
# From MPC 75726
212P/NEAT,e,22.4272,98.8834,15.0870,3.917417,0.1271172,0.58019233,13.0394,12/22.0/2016,2000,g 17.0,2.0
# From MPC 88331
213P/Van Ness,e,10.3784,311.3381,5.5165,3.347981,0.1608902,0.40745775,315.5521,12/22.0/2016,2000,g 10.5,4.0
# From MPC 92986
214P/LINEAR,e,15.2051,348.2661,190.2512,3.611718,0.1435930,0.48727545,58.2001,12/22.0/2016,2000,g 13.0,4.0
# From MPC102102
215P/NEAT,e,10.3121,57.8640,257.8096,4.383389,0.1073962,0.18342447,249.5136,12/22.0/2016,2000,g 11.0,4.0
# From MPC 10028
216P/LINEAR,e,9.0474,359.8712,151.5447,3.876544,0.1291329,0.44555168,26.4682,12/22.0/2016,2000,g 13.0,4.0
# From MPC 75726
217P/LINEAR,e,12.8566,125.4548,246.9570,3.955666,0.1252780,0.68770010,334.1218,12/22.0/2016,2000,g 12.0,4.0
# From MPC 95214
218P/LINEAR,e,2.7254,176.0227,59.6723,3.096176,0.1809113,0.62177390,110.1236,12/22.0/2016,2000,g 16.0,4.0
# From MPC 10028
219P/LINEAR,e,11.5286,231.0265,107.4116,3.652590,0.1411896,0.35245180,351.4398,12/22.0/2016,2000,g 11.0,4.0
# From MPC 96868
220P/McNaught,e,8.1254,150.1112,180.6378,3.115423,0.1792374,0.50127815,99.8965,12/22.0/2016,2000,g 15.0,4.0
# From MPC 93589
221P/LINEAR,e,11.4255,229.7468,39.9478,3.460365,0.1531163,0.49202278,81.0479,12/22.0/2016,2000,g 14.5,4.0
# From MPC 92277
222P/LINEAR,e,5.1554,6.8432,346.3522,2.891283,0.2004786,0.71866958,181.0529,12/22.0/2016,2000,g 20.0,4.0
# From MPC102102
223P/Skiff,e,27.0164,346.7968,37.8628,4.154777,0.1163811,0.41489333,270.7865,12/22.0/2016,2000,g 12.0,4.0
# From MPC 75727
224P/LINEAR-NEAT,e,13.4261,40.4745,16.3317,3.412455,0.1563521,0.41584161,33.0479,12/22.0/2016,2000,g 15.5,4.0
# From MPC 75727
225P/LINEAR,e,21.3350,14.1818,3.9218,3.654396,0.1410850,0.63755893,17.9244,12/22.0/2016,2000,g 18.0,4.0
# From MPC101100
226P/Pigott-LINEAR-Kowalski,e,44.0042,54.0064,341.1258,3.770338,0.1346274,0.52885640,14.5205,12/22.0/2016,2000,g 12.5,4.0
# From MPC 75727
227P/Catalina-LINEAR,e,6.5270,49.7998,90.2493,3.584572,0.1452272,0.50119228,333.5463,12/22.0/2016,2000,g 16.5,2.0
# From MPC 75728
228P/LINEAR,e,7.9114,31.0101,115.2617,4.176721,0.1154651,0.17795556,224.4563,12/22.0/2016,2000,g 14.5,2.0
# From MPC101100
229P/Gibbs,e,26.0682,157.9095,224.1504,3.936131,0.1262117,0.37611029,341.1014,12/22.0/2016,2000,g 13.0,4.0
# From MPC 95735
230P/LINEAR,e,14.6422,112.3020,309.0748,3.403702,0.1569556,0.56357830,62.7362,12/22.0/2016,2000,g 13.0,4.0
# From MPC102102
231P/LINEAR-NEAT,e,12.3300,133.0506,42.5228,4.021841,0.1221987,0.24805151,249.6299,12/22.0/2016,2000,g 14.5,2.0
# From MPC 75728
232P/Hill,e,14.6295,56.0395,53.6031,4.487076,0.1036953,0.33530031,273.3528,12/22.0/2016,2000,g 11.5,4.0
# From MPC 92986
233P/La Sagra,e,11.2829,74.9276,27.1711,3.030567,0.1868178,0.41110900,101.9474,12/22.0/2016,2000,g 15.0,4.0
# From MPC 82322
234P/LINEAR,e,11.5264,179.7223,358.1286,3.810100,0.1325255,0.25258015,338.5493,12/22.0/2016,2000,g 12.0,4.0
# From MPC 75728
